{
  "type": "FeatureCollection",
  "features": [
    {
      "type": "Feature",
      "properties": {
        "norad_id": 58701,
        "name": "TIANMU-1 16",
        "group": "weather",
        "lat": -82.30389904051117,
        "lon": -80.66308725411079,
        "alt_km": 496.63092368132766,
        "timestamp": "2025-12-20T05:41:49.661649+00:00",
        "meta_object_name": "TIANMU-1 16",
        "meta_object_id": "2024-004B",
        "meta_epoch": "2025-12-19T22:13:23.668896",
        "meta_mean_motion": 15.24522791,
        "meta_eccentricity": 0.00043128,
        "meta_inclination": 97.456,
        "meta_ra_of_asc_node": 174.7512,
        "meta_arg_of_pericenter": 263.3689,
        "meta_mean_anomaly": 96.7057,
        "meta_ephemeris_type": 0,
        "meta_classification_type": "U",
        "meta_norad_cat_id": 58701,
        "meta_element_set_no": 999,
        "meta_rev_at_epoch": 10844,
        "meta_bstar": 0.00020613329,
        "meta_mean_motion_dot": 4.999e-05,
        "meta_mean_motion_ddot": 0,
        "tle_line1": "1 58701U 24004B   25353.92596839  .00004999  00000+0  20613-3 0  9995",
        "tle_line2": "2 58701  97.4560 174.7512 0004312 263.3689  96.7057 15.24522791108447"
      },
      "geometry": {
        "type": "Point",
        "coordinates": [
          -80.66308725411079,
          -82.30389904051117
        ]
      }
    },
    {
      "type": "Feature",
      "properties": {
        "norad_id": 58702,
        "name": "TIANMU-1 17",
        "group": "weather",
        "lat": -6.2523134409403545,
        "lon": 176.29752975484186,
        "alt_km": 495.9242328345945,
        "timestamp": "2025-12-20T05:41:49.661659+00:00",
        "meta_object_name": "TIANMU-1 17",
        "meta_object_id": "2024-004C",
        "meta_epoch": "2025-12-19T23:25:25.743360",
        "meta_mean_motion": 15.24567099,
        "meta_eccentricity": 0.0003506,
        "meta_inclination": 97.4594,
        "meta_ra_of_asc_node": 175.2148,
        "meta_arg_of_pericenter": 265.3264,
        "meta_mean_anomaly": 94.7573,
        "meta_ephemeris_type": 0,
        "meta_classification_type": "U",
        "meta_norad_cat_id": 58702,
        "meta_element_set_no": 999,
        "meta_rev_at_epoch": 10844,
        "meta_bstar": 0.00019802987,
        "meta_mean_motion_dot": 4.806e-05,
        "meta_mean_motion_ddot": 0,
        "tle_line1": "1 58702U 24004C   25353.97599240  .00004806  00000+0  19803-3 0  9996",
        "tle_line2": "2 58702  97.4594 175.2148 0003506 265.3264  94.7573 15.24567099108442"
      },
      "geometry": {
        "type": "Point",
        "coordinates": [
          176.29752975484186,
          -6.2523134409403545
        ]
      }
    },
    {
      "type": "Feature",
      "properties": {
        "norad_id": 58703,
        "name": "TIANMU-1 18",
        "group": "weather",
        "lat": 80.97146400254324,
        "lon": 120.10554621690564,
        "alt_km": 486.6755853982804,
        "timestamp": "2025-12-20T05:41:49.661669+00:00",
        "meta_object_name": "TIANMU-1 18",
        "meta_object_id": "2024-004D",
        "meta_epoch": "2025-12-19T23:01:29.927424",
        "meta_mean_motion": 15.24551907,
        "meta_eccentricity": 0.0002865,
        "meta_inclination": 97.4611,
        "meta_ra_of_asc_node": 175.395,
        "meta_arg_of_pericenter": 263.4614,
        "meta_mean_anomaly": 96.6297,
        "meta_ephemeris_type": 0,
        "meta_classification_type": "U",
        "meta_norad_cat_id": 58703,
        "meta_element_set_no": 999,
        "meta_rev_at_epoch": 10844,
        "meta_bstar": 0.00018225261,
        "meta_mean_motion_dot": 4.415e-05,
        "meta_mean_motion_ddot": 0,
        "tle_line1": "1 58703U 24004D   25353.95937416  .00004415  00000+0  18225-3 0  9999",
        "tle_line2": "2 58703  97.4611 175.3950 0002865 263.4614  96.6297 15.24551907108445"
      },
      "geometry": {
        "type": "Point",
        "coordinates": [
          120.10554621690564,
          80.97146400254324
        ]
      }
    },
    {
      "type": "Feature",
      "properties": {
        "norad_id": 58990,
        "name": "INSAT-3DS",
        "group": "weather",
        "lat": -0.006454894422342734,
        "lon": -103.37771487870315,
        "alt_km": 35781.48608879963,
        "timestamp": "2025-12-20T05:41:49.661682+00:00",
        "meta_object_name": "INSAT-3DS",
        "meta_object_id": "2024-033A",
        "meta_epoch": "2025-12-19T20:14:11.978016",
        "meta_mean_motion": 1.00272362,
        "meta_eccentricity": 0.00010886,
        "meta_inclination": 0.0523,
        "meta_ra_of_asc_node": 106.0423,
        "meta_arg_of_pericenter": 165.7027,
        "meta_mean_anomaly": 202.594,
        "meta_ephemeris_type": 0,
        "meta_classification_type": "U",
        "meta_norad_cat_id": 58990,
        "meta_element_set_no": 999,
        "meta_rev_at_epoch": 4527,
        "meta_bstar": 0,
        "meta_mean_motion_dot": -1.32e-06,
        "meta_mean_motion_ddot": 0,
        "tle_line1": "1 58990U 24033A   25353.84319419 -.00000132  00000+0  00000+0 0  9995",
        "tle_line2": "2 58990   0.0523 106.0423 0001088 165.7027 202.5940  1.00272362 45277"
      },
      "geometry": {
        "type": "Point",
        "coordinates": [
          -103.37771487870315,
          -0.006454894422342734
        ]
      }
    },
    {
      "type": "Feature",
      "properties": {
        "norad_id": 59051,
        "name": "METEOR-M2 4",
        "group": "weather",
        "lat": 27.758941456179503,
        "lon": -53.581437098908246,
        "alt_km": 813.0417114087713,
        "timestamp": "2025-12-20T05:41:49.661693+00:00",
        "meta_object_name": "METEOR-M2 4",
        "meta_object_id": "2024-039A",
        "meta_epoch": "2025-12-19T22:48:45.277920",
        "meta_mean_motion": 14.22402324,
        "meta_eccentricity": 0.00066516,
        "meta_inclination": 98.6776,
        "meta_ra_of_asc_node": 310.7466,
        "meta_arg_of_pericenter": 337.3554,
        "meta_mean_anomaly": 22.733,
        "meta_ephemeris_type": 0,
        "meta_classification_type": "U",
        "meta_norad_cat_id": 59051,
        "meta_element_set_no": 999,
        "meta_rev_at_epoch": 9378,
        "meta_bstar": 2.056769e-05,
        "meta_mean_motion_dot": 2e-08,
        "meta_mean_motion_ddot": 0,
        "tle_line1": "1 59051U 24039A   25353.95052405  .00000002  00000+0  20568-4 0  9992",
        "tle_line2": "2 59051  98.6776 310.7466 0006651 337.3554  22.7330 14.22402324 93788"
      },
      "geometry": {
        "type": "Point",
        "coordinates": [
          -53.581437098908246,
          27.758941456179503
        ]
      }
    },
    {
      "type": "Feature",
      "properties": {
        "norad_id": 60133,
        "name": "GOES 19",
        "group": "weather",
        "lat": 0.004376245870335018,
        "lon": 99.34247951714781,
        "alt_km": 35789.81243627038,
        "timestamp": "2025-12-20T05:41:49.661705+00:00",
        "meta_object_name": "GOES 19",
        "meta_object_id": "2024-119A",
        "meta_epoch": "2025-12-19T10:38:46.804128",
        "meta_mean_motion": 1.00271901,
        "meta_eccentricity": 0.0001077,
        "meta_inclination": 0.0077,
        "meta_ra_of_asc_node": 262.8367,
        "meta_arg_of_pericenter": 52.3942,
        "meta_mean_anomaly": 217.5699,
        "meta_ephemeris_type": 0,
        "meta_classification_type": "U",
        "meta_norad_cat_id": 60133,
        "meta_element_set_no": 999,
        "meta_rev_at_epoch": 516,
        "meta_bstar": 0,
        "meta_mean_motion_dot": -2.24e-06,
        "meta_mean_motion_ddot": 0,
        "tle_line1": "1 60133U 24119A   25353.44359727 -.00000224  00000+0  00000+0 0  9996",
        "tle_line2": "2 60133   0.0077 262.8367 0001077  52.3942 217.5699  1.00271901  5165"
      },
      "geometry": {
        "type": "Point",
        "coordinates": [
          99.34247951714781,
          0.004376245870335018
        ]
      }
    },
    {
      "type": "Feature",
      "properties": {
        "norad_id": 65815,
        "name": "FENGYUN 3H",
        "group": "weather",
        "lat": -19.642367351480083,
        "lon": 110.54719862573398,
        "alt_km": 830.8078478683756,
        "timestamp": "2025-12-20T05:41:49.661716+00:00",
        "meta_object_name": "FENGYUN 3H",
        "meta_object_id": "2025-219A",
        "meta_epoch": "2025-12-19T21:59:40.130880",
        "meta_mean_motion": 14.19906476,
        "meta_eccentricity": 7.258e-05,
        "meta_inclination": 98.6594,
        "meta_ra_of_asc_node": 293.3512,
        "meta_arg_of_pericenter": 104.9091,
        "meta_mean_anomaly": 255.2166,
        "meta_ephemeris_type": 0,
        "meta_classification_type": "U",
        "meta_norad_cat_id": 65815,
        "meta_element_set_no": 999,
        "meta_rev_at_epoch": 1194,
        "meta_bstar": 3.9182334e-05,
        "meta_mean_motion_dot": 4e-07,
        "meta_mean_motion_ddot": 0,
        "tle_line1": "1 65815U 25219A   25353.91643670  .00000040  00000+0  39182-4 0  9998",
        "tle_line2": "2 65815  98.6594 293.3512 0000725 104.9091 255.2166 14.19906476 11940"
      },
      "geometry": {
        "type": "Point",
        "coordinates": [
          110.54719862573398,
          -19.642367351480083
        ]
      }
    }
  ]
}